H1 CPF 01  gfz 2022 04 08 00  5981 terrasarx 
H2 0702601  6201 31698    2022 04 08 00 59 42 2022 04 13 00 00 42   120 1 1  0 0 0
H9
10 0 59681  22302.000000  0    4929559.769    405533.475   4785316.158
10 0 59681  22422.000000  0    5523699.472    241092.002   4100302.953
10 0 59681  22542.000000  0    6018295.323     62908.719   3343112.861
10 0 59681  22662.000000  0    6404480.341   -124082.436   2527060.735
10 0 59681  22782.000000  0    6675382.326   -314654.287   1666509.324
10 0 59681  22902.000000  0    6826254.568   -503416.065    776613.101
10 0 59681  23022.000000  0    6854565.688   -684946.711   -126955.288
10 0 59681  23142.000000  0    6760044.775   -853930.663  -1028290.450
10 0 59681  23262.000000  0    6544679.496  -1005291.961  -1911543.218
10 0 59681  23382.000000  0    6212669.192  -1134322.848  -2761207.378
10 0 59681  23502.000000  0    5770333.878  -1236803.934  -3562397.175
10 0 59681  23622.000000  0    5225982.663  -1309112.688  -4301110.316
10 0 59681  23742.000000  0    4589745.456  -1348317.418  -4964470.936
10 0 59681  23862.000000  0    3873373.415  -1352255.538  -5540948.940
10 0 59681  23982.000000  0    3090011.928  -1319594.939  -6020552.342
10 0 59681  24102.000000  0    2253952.680  -1249876.334  -6394989.414
10 0 59681  24222.000000  0    1380370.445  -1143535.640  -6657801.126
10 0 59681  24342.000000  0     485048.235  -1001907.900  -6804461.896
10 0 59681  24462.000000  0    -415903.981   -827212.236  -6832449.263
10 0 59681  24582.000000  0   -1306332.781   -622517.539  -6741282.060
10 0 59681  24702.000000  0   -2170324.438   -391689.709  -6532528.166
10 0 59681  24822.000000  0   -2992483.031   -139320.835  -6209779.225
10 0 59681  24942.000000  0   -3758198.589    129358.081  -5778595.576
10 0 59681  25062.000000  0   -4453905.597    408580.520  -5246421.305
10 0 59681  25182.000000  0   -5067325.254    692161.649  -4622466.465
10 0 59681  25302.000000  0   -5587688.627    973628.101  -3917560.289
10 0 59681  25422.000000  0   -6005935.923   1246358.974  -3143972.855
10 0 59681  25542.000000  0   -6314885.804   1503733.773  -2315208.263
10 0 59681  25662.000000  0   -6509371.284   1739283.971  -1445772.370
10 0 59681  25782.000000  0   -6586338.643   1946845.584   -550918.329
10 0 59681  25902.000000  0   -6544904.737   2120707.808    353626.400
10 0 59681  26022.000000  0   -6386370.169   2255753.901   1251943.773
10 0 59681  26142.000000  0   -6114188.970   2347591.835   2128213.601
10 0 59681  26262.000000  0   -5733894.381   2392670.462   2967001.415
10 0 59681  26382.000000  0   -5252983.042   2388377.501   3753538.440
10 0 59681  26502.000000  0   -4680760.027   2333116.836   4473987.630
10 0 59681  26622.000000  0   -4028150.036   2226364.206   5115688.961
10 0 59681  26742.000000  0   -3307480.797   2068700.102   5667381.007
10 0 59681  26862.000000  0   -2532242.653   1861819.811   6119396.474
10 0 59681  26982.000000  0   -1716828.348   1608519.307   6463827.095
10 0 59681  27102.000000  0    -876260.451   1312657.597   6694655.475
10 0 59681  27222.000000  0     -25912.572    979097.077   6807852.756
10 0 59681  27342.000000  0     818771.107    613622.913   6801444.147
10 0 59681  27462.000000  0    1642555.150    222842.736   6675541.030
10 0 59681  27582.000000  0    2430686.246   -185931.974   6432339.451
10 0 59681  27702.000000  0    3169157.140   -604821.862   6076085.534
10 0 59681  27822.000000  0    3844957.746  -1025530.055   5613006.203
10 0 59681  27942.000000  0    4446308.231  -1439505.232   5051205.920
10 0 59681  28062.000000  0    4962869.464  -1838114.439   4400530.863
10 0 59681  28182.000000  0    5385928.914  -2212821.680   3672402.059
10 0 59681  28302.000000  0    5708557.004  -2555369.768   2879617.258
10 0 59681  28422.000000  0    5925727.957  -2857960.760   2036125.084
10 0 59681  28542.000000  0    6034403.973  -3113430.128   1156777.353
10 0 59681  28662.000000  0    6033581.194  -3315411.587    257061.709
10 0 59681  28782.000000  0    5924293.100  -3458486.523   -647179.193
10 0 59681  28902.000000  0    5709573.843  -3538315.478  -1540036.090
10 0 59681  29022.000000  0    5394379.074  -3551746.444  -2405822.044
10 0 59681  29142.000000  0    4985470.057  -3496899.246  -3229354.031
10 0 59681  29262.000000  0    4491263.182  -3373223.632  -3996223.244
10 0 59681  29382.000000  0    3921649.059  -3181530.166  -4693047.368
10 0 59681  29502.000000  0    3287786.031  -2923992.725  -5307700.785
10 0 59681  29622.000000  0    2601874.469  -2604123.512  -5829517.318
10 0 59681  29742.000000  0    1876918.590  -2226723.675  -6249464.842
10 0 59681  29862.000000  0    1126478.656  -1797809.080  -6560292.418
10 0 59681  29982.000000  0     364417.232  -1324511.230  -6756644.962
10 0 59681  30102.000000  0    -395353.588   -814958.262  -6835145.204
10 0 59681  30222.000000  0   -1139120.498   -278137.236  -6794444.647
10 0 59681  30342.000000  0   -1853610.774    276260.798  -6635244.091
10 0 59681  30462.000000  0   -2526223.688    838011.358  -6360282.027
10 0 59681  30582.000000  0   -3145247.762   1396540.002  -5974292.678
10 0 59681  30702.000000  0   -3700062.407   1941116.541  -5483933.922
10 0 59681  30822.000000  0   -4181322.470   2461057.783  -4897684.419
10 0 59681  30942.000000  0   -4581120.750   2945935.971  -4225707.709
10 0 59681  31062.000000  0   -4893124.134   3385787.412  -3479685.679
10 0 59681  31182.000000  0   -5112682.039   3771318.345  -2672624.732
10 0 59681  31302.000000  0   -5236903.599   4094103.560  -1818633.824
10 0 59681  31422.000000  0   -5264701.327   4346771.861   -932679.498
10 0 59681  31542.000000  0   -5196799.791   4523174.389    -30320.891
10 0 59681  31662.000000  0   -5035707.531   4618531.260    872569.733
10 0 59681  31782.000000  0   -4785651.991   4629550.677   1760095.523
10 0 59681  31902.000000  0   -4452479.066   4554517.796   2616624.339
10 0 59681  32022.000000  0   -4043519.744   4393352.086   3427072.337
10 0 59681  32142.000000  0   -3567428.151   4147631.097   4177175.967
10 0 59681  32262.000000  0   -3033995.923   3820580.289   4853746.727
10 0 59681  32382.000000  0   -2453946.849   3417029.628   5444904.659
10 0 59681  32502.000000  0   -1838716.420   2943337.995   5940285.172
10 0 59681  32622.000000  0   -1200222.012   2407287.726   6331216.342
10 0 59681  32742.000000  0    -550629.053   1817951.288   6610863.551
10 0 59681  32862.000000  0      97880.255   1185534.842   6774342.276
10 0 59681  32982.000000  0     733335.320    521199.569   6818798.652
10 0 59681  33102.000000  0    1344197.189   -163135.131   6743455.487
10 0 59681  33222.000000  0    1919566.951   -855004.561   6549625.759
10 0 59681  33342.000000  0    2449379.771  -1541625.246   6240691.477
10 0 59681  33462.000000  0    2924582.007  -2210130.324   5822049.449
10 0 59681  33582.000000  0    3337288.766  -2847811.630   5301022.396
10 0 59681  33702.000000  0    3680918.016  -3442363.099   4686736.912
10 0 59681  33822.000000  0    3950299.848  -3982121.820   3989969.194
10 0 59681  33942.000000  0    4141758.211  -4456301.719   3222959.466
10 0 59681  34062.000000  0    4253162.675  -4855214.667   2399198.158
10 0 59681  34182.000000  0    4283949.490  -5170473.521   1533186.539
10 0 59681  34302.000000  0    4235110.241  -5395171.582    640176.357
10 0 59681  34422.000000  0    4109148.010  -5524033.437   -264105.841
10 0 59681  34542.000000  0    3910004.013  -5553534.757  -1163743.160
10 0 59681  34662.000000  0    3642954.013  -5481987.270  -2042918.365
10 0 59681  34782.000000  0    3314478.164  -5309585.246  -2886199.245
10 0 59681  34902.000000  0    2932108.806  -5038414.501  -3678815.300
10 0 59681  35022.000000  0    2504258.546  -4672423.128  -4406918.786
10 0 59681  35142.000000  0    2040034.148  -4217355.854  -5057824.762
10 0 59681  35262.000000  0    1549042.275  -3680653.732  -5620225.784
10 0 59681  35382.000000  0    1041191.582  -3071323.905  -6084378.743
10 0 59681  35502.000000  0     526493.952  -2399782.660  -6442263.212
10 0 59681  35622.000000  0      14869.181  -1677673.405  -6687709.221
10 0 59681  35742.000000  0    -484042.285   -917663.522  -6816493.066
10 0 59681  35862.000000  0    -961055.789   -133224.117  -6826401.941
10 0 59681  35982.000000  0   -1407607.297    661603.885  -6717267.006
10 0 59681  36102.000000  0   -1815903.671   1452454.437  -6490965.543
10 0 59681  36222.000000  0   -2179055.399   2224889.639  -6151391.974
10 0 59681  36342.000000  0   -2491191.832   2964657.402  -5704399.144
10 0 59681  36462.000000  0   -2747556.659   3657951.928  -5157707.799
10 0 59681  36582.000000  0   -2944582.331   4291671.779  -4520785.170
10 0 59681  36702.000000  0   -3079941.934   4853671.420  -3804691.246
10 0 59681  36822.000000  0   -3152575.695   5332999.188  -3021894.534
10 0 59681  36942.000000  0   -3162692.354   5720117.315  -2186062.538
10 0 59681  37062.000000  0   -3111746.030   6007101.688  -1311826.995
10 0 59681  37182.000000  0   -3002385.819   6187812.705   -414525.964
10 0 59681  37302.000000  0   -2838381.665   6258032.048    490068.225
10 0 59681  37422.000000  0   -2624528.206   6215565.708   1386034.053
10 0 59681  37542.000000  0   -2366524.045   6060303.549   2257592.791
10 0 59681  37662.000000  0   -2070832.664   5794234.681   3089395.466
10 0 59681  37782.000000  0   -1744529.960   5421421.225   3866799.737
10 0 59681  37902.000000  0   -1395141.858   4947931.380   4576132.281
10 0 59681  38022.000000  0   -1030475.237   4381732.851   5204931.889
10 0 59681  38142.000000  0    -658445.605   3732549.500   5742167.193
10 0 59681  38262.000000  0    -286908.466   3011686.029   6178426.633
10 0 59681  38382.000000  0      76504.232   2231823.166   6506077.826
10 0 59681  38502.000000  0     424538.588   1406790.077   6719394.844
10 0 59681  38622.000000  0     750461.970    551315.691   6814652.781
10 0 59681  38742.000000  0    1048191.721   -319234.531   6790187.635
99
